STARLINK-2360
1 27900C 21021AS  21325.13821579  .00001156  00000-0  77493-4 0  3255
2 27900  53.0546 117.6126 0001261  69.3286 199.5062 15.06393734    17
